{"type":"FeatureCollection","features":[{"type":"Feature","geometry":{"type":"Polygon","coordinates":[[[-56.01173,-4.227247,0],[-56.011421,-4.225419,0],[-56.013872,-4.225092,0],[-56.01391,-4.225162,0],[-56.014124,-4.226965,0],[-56.01173,-4.227247,0]]]},"properties":{"name":"jrdTer01","styleUrl":"#poly-FFD600-1200-77-nodesc","stroke-opacity":1,"fill":"#ffd600","stroke":"#ffd600"}},{"type":"Feature","geometry":{"type":"Polygon","coordinates":[[[-56.011408,-4.225426,0],[-56.012079,-4.230099,0],[-56.010948,-4.230264,0],[-56.010648,-4.2299,0],[-56.010487,-4.229237,0],[-56.010079,-4.228648,0],[-56.009414,-4.225053,0],[-56.010165,-4.225042,0],[-56.010348,-4.225492,0],[-56.011408,-4.225426,0]]]},"properties":{"name":"jrdTer02","styleUrl":"#poly-FFD600-1200-77-nodesc","stroke-opacity":1,"fill":"#ffd600","stroke":"#ffd600"}},{"type":"Feature","geometry":{"type":"Polygon","coordinates":[[[-56.01414,-4.226931,0],[-56.014296,-4.227862,0],[-56.011823,-4.228231,0],[-56.011705,-4.227263,0],[-56.01414,-4.226931,0]]]},"properties":{"name":"jrdTer03","styleUrl":"#poly-FFD600-1200-148-nodesc","stroke-opacity":1,"fill":"#ffd600","stroke":"#ffd600"}},{"type":"Feature","geometry":{"type":"Polygon","coordinates":[[[-56.014296,-4.227862,0],[-56.014541,-4.229751,0],[-56.012079,-4.230099,0],[-56.011823,-4.228231,0],[-56.014296,-4.227862,0]]]},"properties":{"name":"jrdTer04","styleUrl":"#poly-FFD600-1200-156-nodesc","stroke-opacity":1,"fill":"#ffd600","stroke":"#ffd600"}},{"type":"Feature","geometry":{"type":"Polygon","coordinates":[[[-56.011022,-4.230265,0],[-56.014541,-4.229751,0],[-56.014864,-4.232156,0],[-56.011339,-4.232622,0],[-56.011022,-4.230265,0]]]},"properties":{"name":"jrdTer05","styleUrl":"#poly-FFD600-1200-156-nodesc","stroke-opacity":1,"fill":"#ffd600","stroke":"#ffd600"}},{"type":"Feature","geometry":{"type":"Polygon","coordinates":[[[-56.014864,-4.232156,0],[-56.015169,-4.234528,0],[-56.01165,-4.235015,0],[-56.011339,-4.232622,0],[-56.014864,-4.232156,0]]]},"properties":{"name":"jrdTer06","styleUrl":"#poly-FFEA00-1200-133-nodesc","stroke-opacity":1,"fill":"#ffd600","stroke":"#ffd600"}},{"type":"Feature","geometry":{"type":"Polygon","coordinates":[[[-56.015169,-4.234528,0],[-56.015485,-4.236894,0],[-56.011966,-4.23737,0],[-56.01165,-4.235015,0],[-56.015169,-4.234528,0]]]},"properties":{"name":"jrdTer07","styleUrl":"#poly-FFD600-1200-77-nodesc","stroke-opacity":1,"fill":"#ffd600","stroke":"#ffd600"}},{"type":"Feature","geometry":{"type":"Polygon","coordinates":[[[-56.011966,-4.23737,0],[-56.015485,-4.236894,0],[-56.015823,-4.239317,0],[-56.012288,-4.239777,0],[-56.011966,-4.23737,0]]]},"properties":{"name":"jrdTer08","styleUrl":"#poly-FFD600-1200-77-nodesc","stroke-opacity":1,"fill":"#ffd600","stroke":"#ffd600"}},{"type":"Feature","geometry":{"type":"Polygon","coordinates":[[[-56.01619,-4.242034,0],[-56.012671,-4.242516,0],[-56.012288,-4.239777,0],[-56.015823,-4.239317,0],[-56.01619,-4.242034,0]]]},"properties":{"name":"jrdTer09","styleUrl":"#poly-FFD600-1200-77-nodesc","stroke-opacity":1,"fill":"#ffd600","stroke":"#ffd600"}},{"type":"Feature","geometry":{"type":"Polygon","coordinates":[[[-56.016528,-4.244739,0],[-56.01298,-4.245239,0],[-56.012604,-4.242532,0],[-56.01619,-4.242034,0],[-56.016528,-4.244739,0]]]},"properties":{"name":"jrdTer10","styleUrl":"#poly-FFD600-1200-145-nodesc","stroke-opacity":1,"fill":"#ffd600","stroke":"#ffd600"}},{"type":"Feature","geometry":{"type":"Polygon","coordinates":[[[-56.01655,-4.244754,0],[-56.016651,-4.245781,0],[-56.016544,-4.246508,0],[-56.016716,-4.247733,0],[-56.013465,-4.24822,0],[-56.013046,-4.245235,0],[-56.01655,-4.244754,0]]]},"properties":{"name":"jrdTer11","styleUrl":"#poly-FFD600-2000-77-nodesc","stroke-opacity":1,"fill":"#ffd600","stroke":"#ffd600"}},{"type":"Feature","geometry":{"type":"Polygon","coordinates":[[[-56.009162,-4.233485,0],[-56.008427,-4.23258,0],[-56.009233,-4.231723,0],[-56.010359,-4.230642,0],[-56.011014,-4.230129,0],[-56.011389,-4.233199,0],[-56.009162,-4.233485,0]]]},"properties":{"name":"jrdTer12","styleUrl":"#poly-FFD600-2000-77-nodesc","stroke-opacity":1,"fill":"#ffd600","stroke":"#ffd600"}},{"type":"Feature","geometry":{"type":"Polygon","coordinates":[[[-56.009162,-4.233485,0],[-56.011227,-4.233228,0],[-56.011858,-4.238084,0],[-56.009879,-4.238378,0],[-56.009162,-4.233485,0]]]},"properties":{"name":"jrdTer13","styleUrl":"#poly-FFD600-2000-145-nodesc","stroke-opacity":1,"fill":"#ffd600","stroke":"#ffd600"}},{"type":"Feature","geometry":{"type":"Polygon","coordinates":[[[-56.010369,-4.242093,0],[-56.009879,-4.238378,0],[-56.011858,-4.238084,0],[-56.012405,-4.241711,0],[-56.010369,-4.242093,0]]]},"properties":{"name":"jrdTer14","styleUrl":"#poly-FFEA00-2000-77-nodesc","stroke-opacity":1,"fill":"#ffd600","stroke":"#ffd600"}},{"type":"Feature","geometry":{"type":"Polygon","coordinates":[[[-56.012902,-4.24538,0],[-56.01089,-4.245743,0],[-56.010369,-4.242093,0],[-56.012405,-4.241711,0],[-56.012902,-4.24538,0]]]},"properties":{"name":"jrdTer15","styleUrl":"#poly-FFD600-2000-77-nodesc","stroke-opacity":1,"fill":"#ffd600","stroke":"#ffd600"}},{"type":"Feature","geometry":{"type":"Polygon","coordinates":[[[-56.012902,-4.24538,0],[-56.01332,-4.248407,0],[-56.011255,-4.248712,0],[-56.01089,-4.245743,0],[-56.012902,-4.24538,0]]]},"properties":{"name":"jrdTer16","styleUrl":"#poly-FFD600-2000-77-nodesc","stroke-opacity":1,"fill":"#ffd600","stroke":"#ffd600"}},{"type":"Feature","geometry":{"type":"Polygon","coordinates":[[[-56.011078,-4.247568,0],[-56.00566,-4.240378,0],[-56.007023,-4.238624,0],[-56.007237,-4.23842,0],[-56.007559,-4.238677,0],[-56.008439,-4.237596,0],[-56.009694,-4.237182,0],[-56.011078,-4.247568,0]]]},"properties":{"name":"jrdTer17","styleUrl":"#poly-FFD600-2000-77-nodesc","stroke-opacity":1,"fill":"#ffd600","stroke":"#ffd600"}},{"type":"Feature","geometry":{"type":"Polygon","coordinates":[[[-56.009274,-4.23724,0],[-56.007042,-4.233024,0],[-56.007739,-4.23265,0],[-56.005186,-4.229847,0],[-56.007026,-4.228309,0],[-56.007849,-4.22948,0],[-56.007971,-4.230933,0],[-56.008075,-4.231728,0],[-56.00821,-4.232171,0],[-56.008427,-4.23258,0],[-56.009162,-4.233485,0],[-56.009688,-4.237082,0],[-56.009274,-4.23724,0]]]},"properties":{"name":"jrdTer18","styleUrl":"#poly-FFD600-2000-112-nodesc","stroke-opacity":1,"fill":"#ffd600","stroke":"#ffd600"}},{"type":"Feature","geometry":{"type":"Polygon","coordinates":[[[-56.009274,-4.23724,0],[-56.008362,-4.237572,0],[-56.007503,-4.236341,0],[-56.006119,-4.233538,0],[-56.005261,-4.231976,0],[-56.004263,-4.230617,0],[-56.005186,-4.229847,0],[-56.007739,-4.23265,0],[-56.007042,-4.233024,0],[-56.009274,-4.23724,0]]]},"properties":{"name":"jrdTer19","styleUrl":"#poly-FFEA00-2000-77-nodesc","stroke-opacity":1,"fill":"#ffd600","stroke":"#ffd600"}},{"type":"Feature","geometry":{"type":"Polygon","coordinates":[[[-56.008362,-4.237572,0],[-56.007723,-4.23843,0],[-56.007621,-4.23849,0],[-56.007508,-4.238497,0],[-56.007342,-4.238409,0],[-56.005373,-4.235862,0],[-56.006752,-4.234825,0],[-56.007503,-4.236341,0],[-56.008362,-4.237572,0]]]},"properties":{"name":"jrdTer20","styleUrl":"#poly-FFD600-2000-120-nodesc","stroke-opacity":1,"fill":"#ffd600","stroke":"#ffd600"}},{"type":"Feature","geometry":{"type":"Polygon","coordinates":[[[-56.005401,-4.235846,0],[-56.004368,-4.234507,0],[-56.005982,-4.233276,0],[-56.00674,-4.234789,0],[-56.005401,-4.235846,0]]]},"properties":{"name":"jrdTer21","styleUrl":"#poly-FFD600-1200-77-nodesc","stroke-opacity":1,"fill":"#ffd600","stroke":"#ffd600"}},{"type":"Feature","geometry":{"type":"Polygon","coordinates":[[[-56.003885,-4.233855,0],[-56.005575,-4.23255,0],[-56.005982,-4.233276,0],[-56.004368,-4.234507,0],[-56.003885,-4.233855,0]]]},"properties":{"name":"jrdTer22","styleUrl":"#poly-FFD600-1200-77-nodesc","stroke-opacity":1,"fill":"#ffd600","stroke":"#ffd600"}},{"type":"Feature","geometry":{"type":"Polygon","coordinates":[[[-56.002549,-4.2321,0],[-56.004263,-4.230617,0],[-56.005261,-4.231976,0],[-56.005575,-4.23255,0],[-56.003885,-4.233855,0],[-56.002549,-4.2321,0]]]},"properties":{"name":"jrdTer23","styleUrl":"#poly-FFD600-1200-94-nodesc","stroke-opacity":1,"fill":"#ffd600","stroke":"#ffd600"}},{"type":"Feature","geometry":{"type":"Polygon","coordinates":[[[-56.004308,-4.238827,0],[-56.006379,-4.237286,0],[-56.007237,-4.23842,0],[-56.007023,-4.238624,0],[-56.00566,-4.240378,0],[-56.004308,-4.238827,0]]]},"properties":{"name":"jrdTer24","styleUrl":"#poly-FFD600-1200-77-nodesc","stroke-opacity":1,"fill":"#ffd600","stroke":"#ffd600"}},{"type":"Feature","geometry":{"type":"Polygon","coordinates":[[[-56.004341,-4.238792,0],[-56.004308,-4.238827,0],[-56.003274,-4.237541,0],[-56.005339,-4.235887,0],[-56.006379,-4.237286,0],[-56.004341,-4.238792,0]]]},"properties":{"name":"jrdTer25","styleUrl":"#poly-FFD600-1200-77-nodesc","stroke-opacity":1,"fill":"#ffd600","stroke":"#ffd600"}},{"type":"Feature","geometry":{"type":"Polygon","coordinates":[[[-56.003274,-4.237541,0],[-56.002244,-4.236101,0],[-56.004282,-4.234614,0],[-56.005339,-4.235887,0],[-56.003274,-4.237541,0]]]},"properties":{"name":"jrdTer26","styleUrl":"#poly-FFD600-1200-77-nodesc","stroke-opacity":1,"fill":"#ffd600","stroke":"#ffd600"}},{"type":"Feature","geometry":{"type":"Polygon","coordinates":[[[-56.004282,-4.234614,0],[-56.002244,-4.236101,0],[-56.001808,-4.235485,0],[-56.003784,-4.23394,0],[-56.004282,-4.234614,0]]]},"properties":{"name":"jrdTer27","styleUrl":"#poly-FFD600-1200-145-nodesc","stroke-opacity":1,"fill":"#ffd600","stroke":"#ffd600"}},{"type":"Feature","geometry":{"type":"Polygon","coordinates":[[[-56.003805,-4.233887,0],[-56.001783,-4.23547,0],[-56.000506,-4.233699,0],[-56.002507,-4.232127,0],[-56.003805,-4.233887,0]]]},"properties":{"name":"jrdTer28","styleUrl":"#poly-FFD600-1200-77-nodesc","stroke-opacity":1,"fill":"#ffd600","stroke":"#ffd600"}},{"type":"Feature","geometry":{"type":"Polygon","coordinates":[[[-56.005262,-4.229744,0],[-56.002993,-4.227108,0],[-56.004205,-4.225586,0],[-56.004648,-4.225859,0],[-56.005193,-4.225396,0],[-56.002988,-4.223406,0],[-56.003637,-4.222668,0],[-56.004613,-4.223716,0],[-56.004924,-4.223545,0],[-56.006963,-4.225674,0],[-56.007209,-4.225428,0],[-56.007499,-4.225749,0],[-56.008615,-4.224219,0],[-56.009345,-4.224369,0],[-56.00899,-4.225589,0],[-56.008497,-4.225774,0],[-56.008862,-4.225924,0],[-56.008905,-4.226695,0],[-56.009334,-4.226973,0],[-56.009613,-4.227497,0],[-56.009699,-4.228064,0],[-56.009688,-4.228909,0],[-56.008894,-4.228257,0],[-56.008261,-4.228075,0],[-56.007338,-4.228813,0],[-56.006984,-4.228342,0],[-56.005262,-4.229744,0]]]},"properties":{"name":"jrdTer29","styleUrl":"#poly-FFD600-1200-77-nodesc","stroke-opacity":1,"fill":"#ffd600","stroke":"#ffd600"}},{"type":"Feature","geometry":{"type":"Polygon","coordinates":[[[-56.002993,-4.227108,0],[-56.002003,-4.226081,0],[-56.003113,-4.224733,0],[-56.004205,-4.225586,0],[-56.002993,-4.227108,0]]]},"properties":{"name":"jrdTer30","styleUrl":"#poly-FFD600-1200-128-nodesc","stroke-opacity":1,"fill":"#ffd600","stroke":"#ffd600"}},{"type":"Feature","geometry":{"type":"Polygon","coordinates":[[[-56.002003,-4.226081,0],[-56.000404,-4.22444,0],[-56.001836,-4.223418,0],[-56.002582,-4.224258,0],[-56.003113,-4.224733,0],[-56.002003,-4.226081,0]]]},"properties":{"name":"jrdTer31","styleUrl":"#poly-F9A825-1200-77-nodesc","stroke-opacity":1,"fill":"#ffd600","stroke":"#ffd600"}},{"type":"Feature","geometry":{"type":"Polygon","coordinates":[[[-56.002993,-4.227108,0],[-56.002887,-4.227248,0],[-56.002039,-4.226691,0],[-56.000827,-4.227847,0],[-55.99808,-4.229799,0],[-55.996894,-4.227531,0],[-55.999349,-4.22571,0],[-55.999283,-4.225612,0],[-56.000433,-4.22448,0],[-56.002993,-4.227108,0]]]},"properties":{"name":"jrdTer32","styleUrl":"#poly-FFD600-1200-77-nodesc","stroke-opacity":1,"fill":"#ffd600","stroke":"#ffd600"}},{"type":"Feature","geometry":{"type":"Polygon","coordinates":[[[-56.001836,-4.223418,0],[-56.000404,-4.22444,0],[-56.000433,-4.22448,0],[-55.999283,-4.225612,0],[-55.99784,-4.223665,0],[-55.999261,-4.223355,0],[-55.999873,-4.222948,0],[-56.000409,-4.222841,0],[-56.001101,-4.222617,0],[-56.001836,-4.223418,0]]]},"properties":{"name":"jrdTer33","styleUrl":"#poly-FFD600-1200-77-nodesc","stroke-opacity":1,"fill":"#ffd600","stroke":"#ffd600"}},{"type":"Feature","geometry":{"type":"Polygon","coordinates":[[[-55.998609,-4.224721,0],[-55.996195,-4.228134,0],[-55.994768,-4.226368,0],[-55.99682,-4.224686,0],[-55.993808,-4.222147,0],[-55.995098,-4.22177,0],[-55.99755,-4.224081,0],[-55.998008,-4.223875,0],[-55.998609,-4.224721,0]]]},"properties":{"name":"jrdTer34","styleUrl":"#poly-FFD600-1200-77-nodesc","stroke-opacity":1,"fill":"#ffd600","stroke":"#ffd600"}},{"type":"Feature","geometry":{"type":"Polygon","coordinates":[[[-55.995303,-4.225883,0],[-55.993318,-4.227477,0],[-55.991172,-4.229103,0],[-55.988908,-4.230879,0],[-55.988554,-4.230462,0],[-55.987857,-4.229895,0],[-55.987557,-4.229274,0],[-55.988168,-4.2289,0],[-55.987953,-4.228023,0],[-55.988876,-4.22646,0],[-55.989584,-4.226097,0],[-55.9907,-4.226674,0],[-55.991183,-4.226065,0],[-55.991902,-4.224855,0],[-55.991322,-4.22447,0],[-55.991462,-4.224181,0],[-55.992427,-4.223828,0],[-55.995303,-4.225883,0]]]},"properties":{"name":"jrdTer35","styleUrl":"#poly-FBC02D-1200-77-nodesc","stroke-opacity":1,"fill":"#ffd600","stroke":"#ffd600"}},{"type":"Feature","geometry":{"type":"Polygon","coordinates":[[[-55.988629,-4.23123,0],[-55.991478,-4.236436,0],[-55.989504,-4.237067,0],[-55.988887,-4.239062,0],[-55.987042,-4.237008,0],[-55.985604,-4.235938,0],[-55.985067,-4.234226,0],[-55.984531,-4.232771,0],[-55.985776,-4.231937,0],[-55.987127,-4.231188,0],[-55.988629,-4.23123,0]]]},"properties":{"name":"jrdTer36","styleUrl":"#poly-FFD600-1200-77-nodesc","stroke-opacity":1,"fill":"#ffd600","stroke":"#ffd600"}},{"type":"Feature","geometry":{"type":"Polygon","coordinates":[[[-55.98908,-4.238705,0],[-55.989638,-4.238812,0],[-55.990067,-4.239422,0],[-55.992556,-4.238255,0],[-55.991998,-4.237346,0],[-55.992524,-4.236864,0],[-55.99452,-4.239111,0],[-55.995043,-4.240005,0],[-55.994463,-4.240633,0],[-55.994073,-4.240806,0],[-55.993345,-4.241182,0],[-55.992881,-4.241406,0],[-55.99231,-4.241695,0],[-55.991065,-4.242321,0],[-55.989606,-4.24093,0],[-55.988984,-4.239903,0],[-55.98908,-4.238705,0]]]},"properties":{"name":"jrdTer37","styleUrl":"#poly-FFD600-1200-77-nodesc","stroke-opacity":1,"fill":"#ffd600","stroke":"#ffd600"}},{"type":"Feature","geometry":{"type":"Polygon","coordinates":[[[-55.995043,-4.240005,0],[-55.995707,-4.240961,0],[-55.993046,-4.244074,0],[-55.992198,-4.243325,0],[-55.991587,-4.242844,0],[-55.991065,-4.242321,0],[-55.993345,-4.241182,0],[-55.994463,-4.240633,0],[-55.995043,-4.240005,0]]]},"properties":{"name":"jrdTer38","styleUrl":"#poly-FFD600-1200-77-nodesc","stroke-opacity":1,"fill":"#ffd600","stroke":"#ffd600"}},{"type":"Feature","geometry":{"type":"Polygon","coordinates":[[[-55.995707,-4.240961,0],[-55.997573,-4.243344,0],[-55.99473,-4.24588,0],[-55.993432,-4.244446,0],[-55.993046,-4.244074,0],[-55.995707,-4.240961,0]]]},"properties":{"name":"jrdTer39","styleUrl":"#poly-FFD600-1200-77-nodesc","stroke-opacity":1,"fill":"#ffd600","stroke":"#ffd600"}},{"type":"Feature","geometry":{"type":"Polygon","coordinates":[[[-55.99473,-4.24588,0],[-55.99425,-4.246363,0],[-55.993513,-4.247157,0],[-55.992828,-4.248289,0],[-55.991803,-4.247663,0],[-55.990763,-4.247053,0],[-55.991095,-4.246417,0],[-55.99087,-4.246152,0],[-55.990988,-4.244721,0],[-55.991065,-4.242321,0],[-55.991587,-4.242844,0],[-55.993046,-4.244074,0],[-55.99473,-4.24588,0]]]},"properties":{"name":"jrdTer40","styleUrl":"#poly-FFD600-1200-77-nodesc","stroke-opacity":1,"fill":"#ffd600","stroke":"#ffd600"}},{"type":"Feature","geometry":{"type":"Polygon","coordinates":[[[-55.994714,-4.245894,0],[-55.997535,-4.243337,0],[-55.999166,-4.245429,0],[-55.998678,-4.245744,0],[-55.997315,-4.246937,0],[-55.996468,-4.247761,0],[-55.994714,-4.245894,0]]]},"properties":{"name":"jrdTer41","styleUrl":"#poly-FFD600-1200-77-nodesc","stroke-opacity":1,"fill":"#ffd600","stroke":"#ffd600"}},{"type":"Feature","geometry":{"type":"Polygon","coordinates":[[[-55.992824,-4.248298,0],[-55.993181,-4.247682,0],[-55.993622,-4.247014,0],[-55.994714,-4.245894,0],[-55.996468,-4.247761,0],[-55.99715,-4.248515,0],[-55.994792,-4.250435,0],[-55.994443,-4.249992,0],[-55.993812,-4.249324,0],[-55.992824,-4.248298,0]]]},"properties":{"name":"jrdTer42","styleUrl":"#poly-FFEA00-1200-77-nodesc","stroke-opacity":1,"fill":"#ffd600","stroke":"#ffd600"}},{"type":"Feature","geometry":{"type":"Polygon","coordinates":[[[-55.999166,-4.245429,0],[-56.001366,-4.248387,0],[-55.998828,-4.250265,0],[-55.996468,-4.247761,0],[-55.997259,-4.247,0],[-55.997696,-4.246608,0],[-55.999166,-4.245429,0]]]},"properties":{"name":"jrdTer43","styleUrl":"#poly-FFD600-1200-77-nodesc","stroke-opacity":1,"fill":"#ffd600","stroke":"#ffd600"}},{"type":"Feature","geometry":{"type":"Polygon","coordinates":[[[-55.998828,-4.250265,0],[-55.996221,-4.252394,0],[-55.994792,-4.250435,0],[-55.99715,-4.248515,0],[-55.998828,-4.250265,0]]]},"properties":{"name":"jrdTer44","styleUrl":"#poly-FFD600-1200-77-nodesc","stroke-opacity":1,"fill":"#ffd600","stroke":"#ffd600"}},{"type":"Feature","geometry":{"type":"Polygon","coordinates":[[[-56.001366,-4.248387,0],[-56.00246,-4.249814,0],[-56.002513,-4.250264,0],[-56.004606,-4.252693,0],[-56.002352,-4.254479,0],[-56.001733,-4.253948,0],[-56.001148,-4.253236,0],[-55.999687,-4.251956,0],[-55.999869,-4.251667,0],[-55.999612,-4.251121,0],[-55.998828,-4.250265,0],[-56.001366,-4.248387,0]]]},"properties":{"name":"jrdTer45","styleUrl":"#poly-FFD600-1200-77-nodesc","stroke-opacity":1,"fill":"#ffd600","stroke":"#ffd600"}},{"type":"Feature","geometry":{"type":"Polygon","coordinates":[[[-55.996221,-4.252394,0],[-55.998828,-4.250265,0],[-55.999612,-4.251121,0],[-55.999869,-4.251667,0],[-55.999687,-4.251956,0],[-56.001148,-4.253236,0],[-56.001733,-4.253948,0],[-56.002352,-4.254479,0],[-55.999612,-4.256781,0],[-55.996221,-4.252394,0]]]},"properties":{"name":"jrdTer46","styleUrl":"#poly-FFD600-1200-77-nodesc","stroke-opacity":1,"fill":"#ffd600","stroke":"#ffd600"}},{"type":"Feature","geometry":{"type":"Polygon","coordinates":[[[-56.005429,-4.252261,0],[-56.005767,-4.251988,0],[-56.00772,-4.254213,0],[-56.008299,-4.253807,0],[-56.009941,-4.255733,0],[-56.01096,-4.254609,0],[-56.011851,-4.253358,0],[-56.012339,-4.253759,0],[-56.01262,-4.254106,0],[-56.012934,-4.25447,0],[-56.012591,-4.25538,0],[-56.012827,-4.255529,0],[-56.01295,-4.256995,0],[-56.012264,-4.256952,0],[-56.012092,-4.257734,0],[-56.01251,-4.258049,0],[-56.012296,-4.258723,0],[-56.011867,-4.258969,0],[-56.011212,-4.258691,0],[-56.007672,-4.25454,0],[-56.005837,-4.252389,0],[-56.005429,-4.252261,0]]]},"properties":{"name":"jrdTer47","styleUrl":"#poly-F9A825-1200-77-nodesc","stroke-opacity":1,"fill":"#ffd600","stroke":"#ffd600"}},{"type":"Feature","geometry":{"type":"Polygon","coordinates":[[[-56.014453,-4.255477,0],[-56.01471,-4.255359,0],[-56.015182,-4.254728,0],[-56.014818,-4.253877,0],[-56.017899,-4.253707,0],[-56.017727,-4.254301,0],[-56.016172,-4.257671,0],[-56.014358,-4.256788,0],[-56.014453,-4.255477,0]]]},"properties":{"name":"jrdTer48","styleUrl":"#poly-FFD600-1200-77-nodesc","stroke-opacity":1,"fill":"#ffd600","stroke":"#ffd600"}},{"type":"Feature","geometry":{"type":"Polygon","coordinates":[[[-56.019567,-4.257614,0],[-56.019052,-4.259005,0],[-56.016172,-4.257671,0],[-56.017727,-4.254301,0],[-56.017899,-4.253707,0],[-56.019068,-4.253725,0],[-56.019149,-4.254265,0],[-56.019197,-4.255635,0],[-56.019197,-4.257368,0],[-56.019299,-4.257475,0],[-56.019567,-4.257614,0]]]},"properties":{"name":"jrdTer49","styleUrl":"#poly-FFD600-1200-77-nodesc","stroke-opacity":1,"fill":"#ffd600","stroke":"#ffd600"}},{"type":"Feature","geometry":{"type":"Polygon","coordinates":[[[-56.019052,-4.259005,0],[-56.019567,-4.257614,0],[-56.021831,-4.258457,0],[-56.02181,-4.260822,0],[-56.020565,-4.259677,0],[-56.019052,-4.259005,0]]]},"properties":{"name":"jrdTer50","styleUrl":"#poly-FFEA00-1200-77-nodesc","stroke-opacity":1,"fill":"#ffd600","stroke":"#ffd600"}},{"type":"Feature","geometry":{"type":"Polygon","coordinates":[[[-56.02181,-4.260822,0],[-56.021856,-4.256444,0],[-56.02367,-4.256444,0],[-56.023691,-4.261376,0],[-56.023369,-4.261847,0],[-56.02181,-4.260822,0]]]},"properties":{"name":"jrdTer51","styleUrl":"#poly-FFD600-1200-77-nodesc","stroke-opacity":1,"fill":"#ffd600","stroke":"#ffd600"}},{"type":"Feature","geometry":{"type":"Polygon","coordinates":[[[-56.023691,-4.261376,0],[-56.02367,-4.256989,0],[-56.025547,-4.257021,0],[-56.025547,-4.257835,0],[-56.024812,-4.259434,0],[-56.023691,-4.261376,0]]]},"properties":{"name":"jrdTer52","styleUrl":"#poly-FFD600-1200-77-nodesc","stroke-opacity":1,"fill":"#ffd600","stroke":"#ffd600"}},{"type":"Feature","geometry":{"type":"Polygon","coordinates":[[[-56.019204,-4.256385,0],[-56.021856,-4.256444,0],[-56.021831,-4.258457,0],[-56.019472,-4.257583,0],[-56.019197,-4.257368,0],[-56.019204,-4.256385,0]]]},"properties":{"name":"jrdTer53","styleUrl":"#poly-FFD600-1200-77-nodesc","stroke-opacity":1,"fill":"#ffd600","stroke":"#ffd600"}},{"type":"Feature","geometry":{"type":"Polygon","coordinates":[[[-56.019204,-4.256385,0],[-56.019171,-4.254358,0],[-56.019112,-4.254005,0],[-56.019423,-4.253887,0],[-56.020142,-4.253652,0],[-56.020727,-4.253438,0],[-56.020845,-4.256423,0],[-56.019204,-4.256385,0]]]},"properties":{"name":"jrdTer54","styleUrl":"#poly-FFD600-1200-77-nodesc","stroke-opacity":1,"fill":"#ffd600","stroke":"#ffd600"}},{"type":"Feature","geometry":{"type":"Polygon","coordinates":[[[-56.020845,-4.256423,0],[-56.020791,-4.255112,0],[-56.020727,-4.253438,0],[-56.021735,-4.252945,0],[-56.021832,-4.25432,0],[-56.021856,-4.256444,0],[-56.020845,-4.256423,0]]]},"properties":{"name":"jrdTer55","styleUrl":"#poly-FFD600-1200-77-nodesc","stroke-opacity":1,"fill":"#ffd600","stroke":"#ffd600"}},{"type":"Feature","geometry":{"type":"Polygon","coordinates":[[[-56.021735,-4.252945,0],[-56.023729,-4.252937,0],[-56.02367,-4.256444,0],[-56.021856,-4.256444,0],[-56.02185,-4.254432,0],[-56.021735,-4.252945,0]]]},"properties":{"name":"jrdTer56","styleUrl":"#poly-FFD600-1200-77-nodesc","stroke-opacity":1,"fill":"#ffd600","stroke":"#ffd600"}},{"type":"Feature","geometry":{"type":"Polygon","coordinates":[[[-56.019043,-4.252215,0],[-56.01885,-4.250386,0],[-56.021323,-4.249963,0],[-56.021361,-4.251659,0],[-56.020282,-4.251969,0],[-56.019043,-4.252215,0]]]},"properties":{"name":"jrdTer57","styleUrl":"#poly-FBC02D-1200-77-nodesc","stroke-opacity":1,"fill":"#ffd600","stroke":"#ffd600"}},{"type":"Feature","geometry":{"type":"Polygon","coordinates":[[[-56.022646,-4.252969,0],[-56.022684,-4.251399,0],[-56.021675,-4.251399,0],[-56.021761,-4.247932,0],[-56.022673,-4.247943,0],[-56.022684,-4.247355,0],[-56.02395,-4.247248,0],[-56.023877,-4.252958,0],[-56.022646,-4.252969,0]]]},"properties":{"name":"jrdTer58","styleUrl":"#poly-F9A825-1200-77-nodesc","stroke-opacity":1,"fill":"#ffd600","stroke":"#ffd600"}}]}
